HYPSO-2                 
1 60531U 24149BR  26059.15801402  .00004189  00000+0  35812-3 0  9991
2 60531  97.6900 137.0212 0001626  87.3683 272.7726 14.98168229 83727
